XRISM                   
1 57800U 23137A   24238.82345831  .00007781  00000+0  56895-3 0  9997
2 57800  31.0032 289.0398 0009857 178.4225 181.6443 15.02264878 53163
